{"type": "FeatureCollection", "features": [ {"type": "Feature", "properties": {"norad_id": 62339, "name": "GPS BIII-7  (PRN 01)", "group": "gps-ops", "lat": -16.167829703716865, "lon": 173.47236980638266, "alt_km": 20210.316774860352, "timestamp": "2025-12-13T03:42:11.532118+00:00", "meta": {"OBJECT_NAME": "GPS BIII-7  (PRN 01)", "OBJECT_ID": "2024-242A", "EPOCH": "2025-12-10T14:03:42.090048", "MEAN_MOTION": 2.00567746, "ECCENTRICITY": 0.0012131, "INCLINATION": 54.9242, "RA_OF_ASC_NODE": 341.8267, "ARG_OF_PERICENTER": 344.331, "MEAN_ANOMALY": 161.0631, "EPHEMERIS_TYPE": 0, "CLASSIFICATION_TYPE": "U", "NORAD_CAT_ID": 62339, "ELEMENT_SET_NO": 999, "REV_AT_EPOCH": 747, "BSTAR": 0, "MEAN_MOTION_DOT": -9e-07, "MEAN_MOTION_DDOT": 0}, "tle": {"line1": "1 62339U 24242A   25344.58590382 -.00000090  00000+0  00000+0 0  9993", "line2": "2 62339  54.9242 341.8267 0012131 344.3310 161.0631  2.00567746  7471"}}, "geometry": {"type": "Point", "coordinates": [173.47236980638266, -16.167829703716865]}}, {"type": "Feature", "properties": {"norad_id": 64202, "name": "GPS BIII-8  (PRN 21)", "group": "gps-ops", "lat": 23.770614034911365, "lon": 56.52460699793818, "alt_km": 20177.66241429403, "timestamp": "2025-12-13T03:42:11.532130+00:00", "meta": {"OBJECT_NAME": "GPS BIII-8  (PRN 21)", "OBJECT_ID": "2025-116A", "EPOCH": "2025-12-12T02:49:55.740000", "MEAN_MOTION": 2.00558325, "ECCENTRICITY": 0.00055602, "INCLINATION": 55.1053, "RA_OF_ASC_NODE": 38.6656, "ARG_OF_PERICENTER": 307.8472, "MEAN_ANOMALY": 53.3313, "EPHEMERIS_TYPE": 0, "CLASSIFICATION_TYPE": "U", "NORAD_CAT_ID": 64202, "ELEMENT_SET_NO": 999, "REV_AT_EPOCH": 412, "BSTAR": 0, "MEAN_MOTION_DOT": -9.7e-07, "MEAN_MOTION_DDOT": 0}, "tle": {"line1": "1 64202U 25116A   25346.11800625 -.00000097  00000+0  00000+0 0  9997", "line2": "2 64202  55.1053  38.6656 0005560 307.8472  53.3313  2.00558325  4121"}}, "geometry": {"type": "Point", "coordinates": [56.52460699793818, 23.770614034911365]}}]}